NOAA 1                  
1 04793U 70106A   26062.09794982 -.00000025  00000+0  10845-3 0  9999
2 04793 101.3527 101.4060 0031677 193.7893 188.9981 12.54049108527394
NOAA 2 (ITOS-D)         
1 06235U 72082A   26062.02949713 -.00000028  00000+0  11432-3 0  9990
2 06235 102.0168  79.4069 0004012  17.8243  38.0057 12.53211586441650
NOAA 3                  
1 06920U 73086A   26062.04819280 -.00000030  00000+0  12472-3 0  9991
2 06920 102.2909  74.9620 0006194 321.4572  56.1407 12.40391580368748
NOAA 4                  
1 07529U 74089A   26062.00296267 -.00000035  00000+0  68890-4 0  9992
2 07529 102.0074  73.6626 0009171  41.3463 346.8782 12.53201519346222
NOAA 5                  
1 09057U 76077A   26061.97210292 -.00000035  00000+0  83768-4 0  9999
2 09057 102.2949  47.4439 0009759 172.9193 254.9478 12.37828185241330
TIROS N                 
1 11060U 78096A   26062.04402819  .00000199  00000+0  11456-3 0  9990
2 11060  98.4641  87.8586 0010368 184.0267 176.0828 14.19334846663695
NOAA 6                  
1 11416U 79057A   26062.06895131  .00000374  00000+0  14555-3 0  9996
2 11416  98.5760  92.2625 0009371 207.0338 153.0360 14.35427566435732
NOAA 7                  
1 12553U 81059A   26062.16847038  .00000064  00000+0  53220-4 0  9997
2 12553  98.8073 130.2744 0011011 206.7758 153.2850 14.17771648309724
NOAA 8                  
1 13923U 83022A   26062.04607929  .00000184  00000+0  89144-4 0  9998
2 13923  98.7373  74.8216 0014303 205.3151 154.7331 14.29763703235908
NOAA 9                  
1 15427U 84123A   26062.06925756  .00000127  00000+0  86544-4 0  9993
2 15427  99.1102  86.1956 0013722 291.7981  78.3522 14.17036238128395
NOAA 10                 
1 16969U 86073A   26061.96126253  .00000197  00000+0  95354-4 0  9990
2 16969  98.6993  55.3677 0011229 310.6014 103.6893 14.29140784 54245
NOAA 11                 
1 19531U 88089A   26061.86084371  .00000071  00000+0  57477-4 0  9995
2 19531  98.6088  11.1319 0010036 240.8341 119.1830 14.15818991932439
NOAA 12                 
1 21263U 91032A   26062.16115543  .00000152  00000+0  80943-4 0  9996
2 21263  98.6145  52.2644 0013295 342.9813  17.0920 14.26714916809841
NOAA 13                 
1 22739U 93050A   26061.85491360  .00000142  00000+0  97607-4 0  9990
2 22739  98.6924   9.7931 0010559  74.5748 285.6591 14.13633628678359
NOAA 14                 
1 23455U 94089A   26062.10430104  .00000094  00000+0  70203-4 0  9996
2 23455  98.5011  36.6324 0010130  34.3676 325.8151 14.14653441608207
NOAA 15                 
1 25338U 98030A   26062.10820248  .00000172  00000+0  88031-4 0  9995
2 25338  98.5168  85.5613 0009217 301.7359  58.2923 14.27109374446163
NOAA 16                 
1 26536U 00055A   26062.15832542  .00000129  00000+0  89718-4 0  9996
2 26536  98.4707  82.0014 0009362 242.8922 117.1297 14.13895899608743
