[{"OBJECT_NAME":"NOAA 1","OBJECT_ID":"1970-106A","EPOCH":"2026-03-03T02:21:02.864448","MEAN_MOTION":12.54049108,"ECCENTRICITY":0.0031677,"INCLINATION":101.3527,"RA_OF_ASC_NODE":101.406,"ARG_OF_PERICENTER":193.7893,"MEAN_ANOMALY":188.9981,"EPHEMERIS_TYPE":0,"CLASSIFICATION_TYPE":"U","NORAD_CAT_ID":4793,"ELEMENT_SET_NO":999,"REV_AT_EPOCH":52739,"BSTAR":0.00010845,"MEAN_MOTION_DOT":-2.5e-7,"MEAN_MOTION_DDOT":0},{"OBJECT_NAME":"NOAA 2 (ITOS-D)","OBJECT_ID":"1972-082A","EPOCH":"2026-03-03T00:42:28.552032","MEAN_MOTION":12.53211586,"ECCENTRICITY":0.0004012,"INCLINATION":102.0168,"RA_OF_ASC_NODE":79.4069,"ARG_OF_PERICENTER":17.8243,"MEAN_ANOMALY":38.0057,"EPHEMERIS_TYPE":0,"CLASSIFICATION_TYPE":"U","NORAD_CAT_ID":6235,"ELEMENT_SET_NO":999,"REV_AT_EPOCH":44165,"BSTAR":0.00011432,"MEAN_MOTION_DOT":-2.8e-7,"MEAN_MOTION_DDOT":0},{"OBJECT_NAME":"NOAA 3","OBJECT_ID":"1973-086A","EPOCH":"2026-03-03T01:09:23.857920","MEAN_MOTION":12.4039158,"ECCENTRICITY":0.0006194,"INCLINATION":102.2909,"RA_OF_ASC_NODE":74.962,"ARG_OF_PERICENTER":321.4572,"MEAN_ANOMALY":56.1407,"EPHEMERIS_TYPE":0,"CLASSIFICATION_TYPE":"U","NORAD_CAT_ID":6920,"ELEMENT_SET_NO":999,"REV_AT_EPOCH":36874,"BSTAR":0.00012472,"MEAN_MOTION_DOT":-3.0e-7,"MEAN_MOTION_DDOT":0},{"OBJECT_NAME":"NOAA 4","OBJECT_ID":"1974-089A","EPOCH":"2026-03-03T00:04:15.974688","MEAN_MOTION":12.53201519,"ECCENTRICITY":0.0009171,"INCLINATION":102.0074,"RA_OF_ASC_NODE":73.6626,"ARG_OF_PERICENTER":41.3463,"MEAN_ANOMALY":346.8782,"EPHEMERIS_TYPE":0,"CLASSIFICATION_TYPE":"U","NORAD_CAT_ID":7529,"ELEMENT_SET_NO":999,"REV_AT_EPOCH":34622,"BSTAR":6.889e-5,"MEAN_MOTION_DOT":-3.5e-7,"MEAN_MOTION_DDOT":0},{"OBJECT_NAME":"NOAA 5","OBJECT_ID":"1976-077A","EPOCH":"2026-03-02T23:19:49.692288","MEAN_MOTION":12.37828185,"ECCENTRICITY":0.0009759,"INCLINATION":102.2949,"RA_OF_ASC_NODE":47.4439,"ARG_OF_PERICENTER":172.9193,"MEAN_ANOMALY":254.9478,"EPHEMERIS_TYPE":0,"CLASSIFICATION_TYPE":"U","NORAD_CAT_ID":9057,"ELEMENT_SET_NO":999,"REV_AT_EPOCH":24133,"BSTAR":8.3768e-5,"MEAN_MOTION_DOT":-3.5e-7,"MEAN_MOTION_DDOT":0},{"OBJECT_NAME":"TIROS N","OBJECT_ID":"1978-096A","EPOCH":"2026-03-03T01:03:24.035616","MEAN_MOTION":14.19334846,"ECCENTRICITY":0.0010368,"INCLINATION":98.4641,"RA_OF_ASC_NODE":87.8586,"ARG_OF_PERICENTER":184.0267,"MEAN_ANOMALY":176.0828,"EPHEMERIS_TYPE":0,"CLASSIFICATION_TYPE":"U","NORAD_CAT_ID":11060,"ELEMENT_SET_NO":999,"REV_AT_EPOCH":66369,"BSTAR":0.00011456,"MEAN_MOTION_DOT":1.99e-6,"MEAN_MOTION_DDOT":0},{"OBJECT_NAME":"NOAA 6","OBJECT_ID":"1979-057A","EPOCH":"2026-03-03T01:39:17.393184","MEAN_MOTION":14.35427566,"ECCENTRICITY":0.0009371,"INCLINATION":98.576,"RA_OF_ASC_NODE":92.2625,"ARG_OF_PERICENTER":207.0338,"MEAN_ANOMALY":153.036,"EPHEMERIS_TYPE":0,"CLASSIFICATION_TYPE":"U","NORAD_CAT_ID":11416,"ELEMENT_SET_NO":999,"REV_AT_EPOCH":43573,"BSTAR":0.00014555,"MEAN_MOTION_DOT":3.74e-6,"MEAN_MOTION_DDOT":0},{"OBJECT_NAME":"NOAA 7","OBJECT_ID":"1981-059A","EPOCH":"2026-03-03T04:02:35.840832","MEAN_MOTION":14.17771648,"ECCENTRICITY":0.0011011,"INCLINATION":98.8073,"RA_OF_ASC_NODE":130.2744,"ARG_OF_PERICENTER":206.7758,"MEAN_ANOMALY":153.285,"EPHEMERIS_TYPE":0,"CLASSIFICATION_TYPE":"U","NORAD_CAT_ID":12553,"ELEMENT_SET_NO":999,"REV_AT_EPOCH":30972,"BSTAR":5.322e-5,"MEAN_MOTION_DOT":6.4e-7,"MEAN_MOTION_DDOT":0},{"OBJECT_NAME":"NOAA 8","OBJECT_ID":"1983-022A","EPOCH":"2026-03-03T01:06:21.250656","MEAN_MOTION":14.29763703,"ECCENTRICITY":0.0014303,"INCLINATION":98.7373,"RA_OF_ASC_NODE":74.8216,"ARG_OF_PERICENTER":205.3151,"MEAN_ANOMALY":154.7331,"EPHEMERIS_TYPE":0,"CLASSIFICATION_TYPE":"U","NORAD_CAT_ID":13923,"ELEMENT_SET_NO":999,"REV_AT_EPOCH":23590,"BSTAR":8.9144e-5,"MEAN_MOTION_DOT":1.84e-6,"MEAN_MOTION_DDOT":0},{"OBJECT_NAME":"NOAA 9","OBJECT_ID":"1984-123A","EPOCH":"2026-03-03T01:39:43.853184","MEAN_MOTION":14.17036238,"ECCENTRICITY":0.0013722,"INCLINATION":99.1102,"RA_OF_ASC_NODE":86.1956,"ARG_OF_PERICENTER":291.7981,"MEAN_ANOMALY":78.3522,"EPHEMERIS_TYPE":0,"CLASSIFICATION_TYPE":"U","NORAD_CAT_ID":15427,"ELEMENT_SET_NO":999,"REV_AT_EPOCH":12839,"BSTAR":8.6544e-5,"MEAN_MOTION_DOT":1.27e-6,"MEAN_MOTION_DDOT":0},{"OBJECT_NAME":"NOAA 10","OBJECT_ID":"1986-073A","EPOCH":"2026-03-02T23:04:13.082592","MEAN_MOTION":14.29140784,"ECCENTRICITY":0.0011229,"INCLINATION":98.6993,"RA_OF_ASC_NODE":55.3677,"ARG_OF_PERICENTER":310.6014,"MEAN_ANOMALY":103.6893,"EPHEMERIS_TYPE":0,"CLASSIFICATION_TYPE":"U","NORAD_CAT_ID":16969,"ELEMENT_SET_NO":999,"REV_AT_EPOCH":5424,"BSTAR":9.5354e-5,"MEAN_MOTION_DOT":1.97e-6,"MEAN_MOTION_DDOT":0},{"OBJECT_NAME":"NOAA 11","OBJECT_ID":"1988-089A","EPOCH":"2026-03-02T20:39:36.896544","MEAN_MOTION":14.15818991,"ECCENTRICITY":0.0010036,"INCLINATION":98.6088,"RA_OF_ASC_NODE":11.1319,"ARG_OF_PERICENTER":240.8341,"MEAN_ANOMALY":119.183,"EPHEMERIS_TYPE":0,"CLASSIFICATION_TYPE":"U","NORAD_CAT_ID":19531,"ELEMENT_SET_NO":999,"REV_AT_EPOCH":93243,"BSTAR":5.7477e-5,"MEAN_MOTION_DOT":7.1e-7,"MEAN_MOTION_DDOT":0},{"OBJECT_NAME":"NOAA 12","OBJECT_ID":"1991-032A","EPOCH":"2026-03-03T03:52:03.829152","MEAN_MOTION":14.26714916,"ECCENTRICITY":0.0013295,"INCLINATION":98.6145,"RA_OF_ASC_NODE":52.2644,"ARG_OF_PERICENTER":342.9813,"MEAN_ANOMALY":17.092,"EPHEMERIS_TYPE":0,"CLASSIFICATION_TYPE":"U","NORAD_CAT_ID":21263,"ELEMENT_SET_NO":999,"REV_AT_EPOCH":80984,"BSTAR":8.0943e-5,"MEAN_MOTION_DOT":1.52e-6,"MEAN_MOTION_DDOT":0},{"OBJECT_NAME":"NOAA 13","OBJECT_ID":"1993-050A","EPOCH":"2026-03-02T20:31:04.535040","MEAN_MOTION":14.13633628,"ECCENTRICITY":0.00105593,"INCLINATION":98.6924,"RA_OF_ASC_NODE":9.7931,"ARG_OF_PERICENTER":74.5748,"MEAN_ANOMALY":285.6591,"EPHEMERIS_TYPE":0,"CLASSIFICATION_TYPE":"U","NORAD_CAT_ID":22739,"ELEMENT_SET_NO":999,"REV_AT_EPOCH":67835,"BSTAR":9.7606581e-5,"MEAN_MOTION_DOT":1.42e-6,"MEAN_MOTION_DDOT":0},{"OBJECT_NAME":"NOAA 14","OBJECT_ID":"1994-089A","EPOCH":"2026-03-03T02:30:11.609856","MEAN_MOTION":14.14653441,"ECCENTRICITY":0.001013,"INCLINATION":98.5011,"RA_OF_ASC_NODE":36.6324,"ARG_OF_PERICENTER":34.3676,"MEAN_ANOMALY":325.8151,"EPHEMERIS_TYPE":0,"CLASSIFICATION_TYPE":"U","NORAD_CAT_ID":23455,"ELEMENT_SET_NO":999,"REV_AT_EPOCH":60820,"BSTAR":7.0203e-5,"MEAN_MOTION_DOT":9.4e-7,"MEAN_MOTION_DDOT":0},{"OBJECT_NAME":"NOAA 15","OBJECT_ID":"1998-030A","EPOCH":"2026-03-03T02:35:48.694272","MEAN_MOTION":14.27109374,"ECCENTRICITY":0.0009217,"INCLINATION":98.5168,"RA_OF_ASC_NODE":85.5613,"ARG_OF_PERICENTER":301.7359,"MEAN_ANOMALY":58.2923,"EPHEMERIS_TYPE":0,"CLASSIFICATION_TYPE":"U","NORAD_CAT_ID":25338,"ELEMENT_SET_NO":999,"REV_AT_EPOCH":44616,"BSTAR":8.8031e-5,"MEAN_MOTION_DOT":1.72e-6,"MEAN_MOTION_DDOT":0},{"OBJECT_NAME":"NOAA 16","OBJECT_ID":"2000-055A","EPOCH":"2026-03-03T03:47:59.316288","MEAN_MOTION":14.13895899,"ECCENTRICITY":0.0009362,"INCLINATION":98.4707,"RA_OF_ASC_NODE":82.0014,"ARG_OF_PERICENTER":242.8922,"MEAN_ANOMALY":117.1297,"EPHEMERIS_TYPE":0,"CLASSIFICATION_TYPE":"U","NORAD_CAT_ID":26536,"ELEMENT_SET_NO":999,"REV_AT_EPOCH":60874,"BSTAR":8.9718e-5,"MEAN_MOTION_DOT":1.29e-6,"MEAN_MOTION_DDOT":0}]
